start=new Date('2022-06-10T00:00:00.000Z').valueOf();
sats=[{"PERIOD":"95.593","OBJECT_TYPE":"PAYLOAD","ELEMENT_SET_NO":"999","TLE_LINE2":"2 44954  53.0586 331.3413 0001586  67.6380 292.4777 15.06387952134049","NORAD_CAT_ID":"44954","REF_FRAME":"TEME","REV_AT_EPOCH":"13404","INCLINATION":"53.0586","DECAY_DATE":null,"PERIAPSIS":"546.152","RA_OF_ASC_NODE":"331.3413","MEAN_MOTION":"15.06387952","GP_ID":"205753982","COUNTRY_CODE":"US","RCS_SIZE":"LARGE","LAUNCH_DATE":"2020-01-07","OBJECT_ID":"2020-001AS","BSTAR":"-0.00006635200000","EPHEMERIS_TYPE":"0","ARG_OF_PERICENTER":"67.6380","MEAN_ELEMENT_THEORY":"SGP4","FILE":"3488818","CLASSIFICATION_TYPE":"U","TLE_LINE1":"1 44954U 20001AS  22160.90190678 -.00001269  00000-0 -66352-4 0  9996","MEAN_MOTION_DDOT":"0.0000000000000","MEAN_MOTION_DOT":"-0.00001269","APOAPSIS":"548.349","MEAN_ANOMALY":"292.4777","CENTER_NAME":"EARTH","OBJECT_NAME":"STARLINK-1066","SEMIMAJOR_AXIS":"6925.385","TIME_SYSTEM":"UTC","SITE":"AFETR","ECCENTRICITY":"0.00015860","EPOCH":"2022-06-09T21:38:44.745792"},{"CENTER_NAME":"EARTH","OBJECT_NAME":"STARLINK-1069","MEAN_ANOMALY":"299.7274","APOAPSIS":"548.568","SEMIMAJOR_AXIS":"6925.377","TIME_SYSTEM":"UTC","EPOCH":"2022-06-09T20:13:50.110176","ECCENTRICITY":"0.00019150","SITE":"AFETR","FILE":"3489040","MEAN_ELEMENT_THEORY":"SGP4","TLE_LINE1":"1 44955U 20001AT  22160.84294109 -.00002751  00000-0 -16590-3 0  9999","CLASSIFICATION_TYPE":"U","MEAN_MOTION_DDOT":"0.0000000000000","MEAN_MOTION_DOT":"-0.00002751","LAUNCH_DATE":"2020-01-07","EPHEMERIS_TYPE":"0","BSTAR":"-0.00016590000000","OBJECT_ID":"2020-001AT","ARG_OF_PERICENTER":"60.3906","ELEMENT_SET_NO":"999","PERIOD":"95.593","OBJECT_TYPE":"PAYLOAD","INCLINATION":"53.0541","REV_AT_EPOCH":"13403","TLE_LINE2":"2 44955  53.0541 331.6166 0001915  60.3906 299.7274 15.06390650134039","REF_FRAME":"TEME","NORAD_CAT_ID":"44955","RA_OF_ASC_NODE":"331.6166","DECAY_DATE":null,"PERIAPSIS":"545.916","GP_ID":"205778388","MEAN_MOTION":"15.06390650","COUNTRY_CODE":"US","RCS_SIZE":"LARGE"},{"MEAN_MOTION_DDOT":"0.0000000000000","MEAN_MOTION_DOT":"-0.00002467","MEAN_ELEMENT_THEORY":"SGP4","FILE":"3489040","CLASSIFICATION_TYPE":"U","TLE_LINE1":"1 44956U 20001AU  22160.83924773 -.00002467  00000-0 -14683-3 0  9991","TIME_SYSTEM":"UTC","ECCENTRICITY":"0.00013490","SITE":"AFETR","EPOCH":"2022-06-09T20:08:31.003872","MEAN_ANOMALY":"282.8478","APOAPSIS":"548.185","CENTER_NAME":"EARTH","OBJECT_NAME":"STARLINK-1070","SEMIMAJOR_AXIS":"6925.386","DECAY_DATE":null,"PERIAPSIS":"546.316","RA_OF_ASC_NODE":"331.6377","GP_ID":"205778638","COUNTRY_CODE":"US","MEAN_MOTION":"15.06387880","RCS_SIZE":"LARGE","PERIOD":"95.593","OBJECT_TYPE":"PAYLOAD","ELEMENT_SET_NO":"999","TLE_LINE2":"2 44956  53.0552 331.6377 0001349  77.2661 282.8478 15.06387880134098","NORAD_CAT_ID":"44956","REF_FRAME":"TEME","INCLINATION":"53.0552","REV_AT_EPOCH":"13409","LAUNCH_DATE":"2020-01-07","OBJECT_ID":"2020-001AU","BSTAR":"-0.00014683000000","EPHEMERIS_TYPE":"0","ARG_OF_PERICENTER":"77.2661"},{"REV_AT_EPOCH":"13409","INCLINATION":"53.0549","REF_FRAME":"TEME","NORAD_CAT_ID":"44957","TLE_LINE2":"2 44957  53.0549 331.5062 0001390  78.8953 281.2193 15.06385025134098","ELEMENT_SET_NO":"999","OBJECT_TYPE":"PAYLOAD","PERIOD":"95.593","RCS_SIZE":"LARGE","MEAN_MOTION":"15.06385025","GP_ID":"205779390","COUNTRY_CODE":"US","RA_OF_ASC_NODE":"331.5062","PERIAPSIS":"546.297","DECAY_DATE":null,"ARG_OF_PERICENTER":"78.8953","EPHEMERIS_TYPE":"0","BSTAR":"-0.00005986800000","OBJECT_ID":"2020-001AV","LAUNCH_DATE":"2020-01-07","TLE_LINE1":"1 44957U 20001AV  22160.86410562 -.00001173  00000-0 -59868-4 0  9999","CLASSIFICATION_TYPE":"U","MEAN_ELEMENT_THEORY":"SGP4","FILE":"3489040","MEAN_MOTION_DOT":"-0.00001173","MEAN_MOTION_DDOT":"0.0000000000000","SEMIMAJOR_AXIS":"6925.394","OBJECT_NAME":"STARLINK-1074","CENTER_NAME":"EARTH","MEAN_ANOMALY":"281.2193","APOAPSIS":"548.222","EPOCH":"2022-06-09T20:44:18.725568","SITE":"AFETR","ECCENTRICITY":"0.00013900","TIME_SYSTEM":"UTC"},{"EPOCH":"2022-06-09T16:20:17.251008","SITE":"AFETR","ECCENTRICITY":"0.00017720","TIME_SYSTEM":"UTC","SEMIMAJOR_AXIS":"6925.393","OBJECT_NAME":"STARLINK-1076","CENTER_NAME":"EARTH","APOAPSIS":"548.485","MEAN_ANOMALY":"303.3965","MEAN_MOTION_DOT":"-0.00001526","MEAN_MOTION_DDOT":"0.0000000000000","TLE_LINE1":"1 44959U 20001AX  22160.68075522 -.00001526  00000-0 -83613-4 0  9991","CLASSIFICATION_TYPE":"U","MEAN_ELEMENT_THEORY":"SGP4","FILE":"3489040","ARG_OF_PERICENTER":"56.7194","OBJECT_ID":"2020-001AX","BSTAR":"-0.00008361300000","EPHEMERIS_TYPE":"0","LAUNCH_DATE":"2020-01-07","RCS_SIZE":"LARGE","MEAN_MOTION":"15.06385552","GP_ID":"205779140","COUNTRY_CODE":"US","RA_OF_ASC_NODE":"332.3357","PERIAPSIS":"546.031","DECAY_DATE":null,"INCLINATION":"53.0554","REV_AT_EPOCH":"13406","REF_FRAME":"TEME","NORAD_CAT_ID":"44959","TLE_LINE2":"2 44959  53.0554 332.3357 0001772  56.7194 303.3965 15.06385552134063","ELEMENT_SET_NO":"999","OBJECT_TYPE":"PAYLOAD","PERIOD":"95.593"},{"RCS_SIZE":"LARGE","COUNTRY_CODE":"US","GP_ID":"205777888","MEAN_MOTION":"15.06389683","RA_OF_ASC_NODE":"331.4246","PERIAPSIS":"546.149","DECAY_DATE":null,"INCLINATION":"53.0553","REV_AT_EPOCH":"13410","REF_FRAME":"TEME","NORAD_CAT_ID":"44961","TLE_LINE2":"2 44961  53.0553 331.4246 0001583  88.0400 272.0771 15.06389683134101","ELEMENT_SET_NO":"999","OBJECT_TYPE":"PAYLOAD","PERIOD":"95.593","ARG_OF_PERICENTER":"88.0400","EPHEMERIS_TYPE":"0","BSTAR":"-0.00006034000000","OBJECT_ID":"2020-001AZ","LAUNCH_DATE":"2020-01-07","MEAN_MOTION_DOT":"-0.00001180","MEAN_MOTION_DDOT":"0.0000000000000","TLE_LINE1":"1 44961U 20001AZ  22160.88716527 -.00001180  00000-0 -60340-4 0  9991","CLASSIFICATION_TYPE":"U","FILE":"3489040","MEAN_ELEMENT_THEORY":"SGP4","EPOCH":"2022-06-09T21:17:31.079328","SITE":"AFETR","ECCENTRICITY":"0.00015830","TIME_SYSTEM":"UTC","SEMIMAJOR_AXIS":"6925.380","OBJECT_NAME":"STARLINK-1080","CENTER_NAME":"EARTH","APOAPSIS":"548.341","MEAN_ANOMALY":"272.0771"},{"TLE_LINE1":"1 44963U 20001BB  22160.92888770  .00016093  00000-0  86487-3 0  9994","CLASSIFICATION_TYPE":"U","MEAN_ELEMENT_THEORY":"SGP4","FILE":"3488836","MEAN_MOTION_DOT":"0.00016093","MEAN_MOTION_DDOT":"0.0000000000000","SEMIMAJOR_AXIS":"6898.970","OBJECT_NAME":"STARLINK-1085","CENTER_NAME":"EARTH","MEAN_ANOMALY":"246.4042","APOAPSIS":"521.434","EPOCH":"2022-06-09T22:17:35.897280","ECCENTRICITY":"0.00008690","SITE":"AFETR","TIME_SYSTEM":"UTC","REV_AT_EPOCH":"13496","INCLINATION":"52.9983","NORAD_CAT_ID":"44963","REF_FRAME":"TEME","TLE_LINE2":"2 44963  52.9983 319.3576 0000869 113.7041 246.4042 15.15048044134965","ELEMENT_SET_NO":"999","OBJECT_TYPE":"PAYLOAD","PERIOD":"95.046","RCS_SIZE":"LARGE","GP_ID":"205754500","COUNTRY_CODE":"US","MEAN_MOTION":"15.15048044","RA_OF_ASC_NODE":"319.3576","PERIAPSIS":"520.235","DECAY_DATE":null,"ARG_OF_PERICENTER":"113.7041","BSTAR":"0.00086487000000","OBJECT_ID":"2020-001BB","EPHEMERIS_TYPE":"0","LAUNCH_DATE":"2020-01-07"},{"OBJECT_NAME":"STARLINK-1086","CENTER_NAME":"EARTH","MEAN_ANOMALY":"270.0765","APOAPSIS":"548.406","SEMIMAJOR_AXIS":"6925.365","TIME_SYSTEM":"UTC","EPOCH":"2022-06-09T20:24:26.061696","SITE":"AFETR","ECCENTRICITY":"0.00016970","MEAN_ELEMENT_THEORY":"SGP4","FILE":"3489040","TLE_LINE1":"1 44964U 20001BC  22160.85030164 -.00000912  00000-0 -42305-4 0  9990","CLASSIFICATION_TYPE":"U","MEAN_MOTION_DDOT":"0.0000000000000","MEAN_MOTION_DOT":"-0.00000912","LAUNCH_DATE":"2020-01-07","ARG_OF_PERICENTER":"90.0419","BSTAR":"-0.00004230500000","OBJECT_ID":"2020-001BC","EPHEMERIS_TYPE":"0","ELEMENT_SET_NO":"999","OBJECT_TYPE":"PAYLOAD","PERIOD":"95.592","INCLINATION":"53.0542","REV_AT_EPOCH":"13409","NORAD_CAT_ID":"44964","REF_FRAME":"TEME","TLE_LINE2":"2 44964  53.0542 331.5697 0001697  90.0419 270.0765 15.06394525134092","RA_OF_ASC_NODE":"331.5697","DECAY_DATE":null,"PERIAPSIS":"546.055","RCS_SIZE":"LARGE","COUNTRY_CODE":"US","GP_ID":"205778890","MEAN_MOTION":"15.06394525"},{"TIME_SYSTEM":"UTC","EPOCH":"2022-06-09T22:31:48.727488","ECCENTRICITY":"0.00012530","SITE":"AFETR","CENTER_NAME":"EARTH","OBJECT_NAME":"STARLINK-1088","MEAN_ANOMALY":"280.1001","APOAPSIS":"548.083","SEMIMAJOR_AXIS":"6925.350","MEAN_MOTION_DDOT":"0.0000000000000","MEAN_MOTION_DOT":"-0.00000681","FILE":"3488836","MEAN_ELEMENT_THEORY":"SGP4","TLE_LINE1":"1 44966U 20001BE  22160.93875842 -.00000681  00000-0 -26806-4 0  9992","CLASSIFICATION_TYPE":"U","LAUNCH_DATE":"2020-01-07","BSTAR":"-0.00002680600000","EPHEMERIS_TYPE":"0","OBJECT_ID":"2020-001BE","ARG_OF_PERICENTER":"80.0130","RA_OF_ASC_NODE":"331.1897","PERIAPSIS":"546.347","DECAY_DATE":null,"GP_ID":"205754511","MEAN_MOTION":"15.06399558","COUNTRY_CODE":"US","RCS_SIZE":"LARGE","ELEMENT_SET_NO":"999","PERIOD":"95.592","OBJECT_TYPE":"PAYLOAD","INCLINATION":"53.0565","REV_AT_EPOCH":"13410","TLE_LINE2":"2 44966  53.0565 331.1897 0001253  80.0130 280.1001 15.06399558134102","NORAD_CAT_ID":"44966","REF_FRAME":"TEME"},{"REV_AT_EPOCH":"13410","INCLINATION":"53.0555","TLE_LINE2":"2 44967  53.0555 331.3825 0001538  75.2897 284.8262 15.06392416134103","NORAD_CAT_ID":"44967","REF_FRAME":"TEME","ELEMENT_SET_NO":"999","PERIOD":"95.593","OBJECT_TYPE":"PAYLOAD","GP_ID":"205778389","MEAN_MOTION":"15.06392416","COUNTRY_CODE":"US","RCS_SIZE":"LARGE","RA_OF_ASC_NODE":"331.3825","PERIAPSIS":"546.172","DECAY_DATE":null,"EPHEMERIS_TYPE":"0","BSTAR":"-0.00001195400000","OBJECT_ID":"2020-001BF","ARG_OF_PERICENTER":"75.2897","LAUNCH_DATE":"2020-01-07","TLE_LINE1":"1 44967U 20001BF  22160.89452863 -.00000460  00000-0 -11954-4 0  9995","CLASSIFICATION_TYPE":"U","FILE":"3489040","MEAN_ELEMENT_THEORY":"SGP4","MEAN_MOTION_DOT":"-0.00000460","MEAN_MOTION_DDOT":"0.0000000000000","SEMIMAJOR_AXIS":"6925.372","CENTER_NAME":"EARTH","OBJECT_NAME":"STARLINK-1089","MEAN_ANOMALY":"284.8262","APOAPSIS":"548.302","EPOCH":"2022-06-09T21:28:07.273632","SITE":"AFETR","ECCENTRICITY":"0.00015380","TIME_SYSTEM":"UTC"}];
